{
  "type": "FeatureCollection",
  "features": [
    {
      "type": "Feature",
      "properties": {
        "norad_id": 36036,
        "name": "SMOS",
        "group": "resource",
        "lat": -31.613153966349994,
        "lon": -4.3847651563016425,
        "alt_km": 765.8369808732223,
        "timestamp": "2025-12-21T22:41:41.104351+00:00",
        "meta_object_name": "SMOS",
        "meta_object_id": "2009-059A",
        "meta_epoch": "2025-12-21T11:42:22.095072",
        "meta_mean_motion": 14.39748569,
        "meta_eccentricity": 0.00010692,
        "meta_inclination": 98.438,
        "meta_ra_of_asc_node": 180.4067,
        "meta_arg_of_pericenter": 84.057,
        "meta_mean_anomaly": 276.074,
        "meta_ephemeris_type": 0,
        "meta_classification_type": "U",
        "meta_norad_cat_id": 36036,
        "meta_element_set_no": 999,
        "meta_rev_at_epoch": 84788,
        "meta_bstar": 0.00011357445,
        "meta_mean_motion_dot": 3.12e-06,
        "meta_mean_motion_ddot": 0,
        "tle_line1": "1 36036U 09059A   25355.48775573  .00000312  00000+0  11357-3 0  9992",
        "tle_line2": "2 36036  98.4380 180.4067 0001069  84.0570 276.0740 14.39748569847885"
      },
      "geometry": {
        "type": "Point",
        "coordinates": [
          -4.3847651563016425,
          -31.613153966349994
        ]
      }
    },
    {
      "type": "Feature",
      "properties": {
        "norad_id": 36110,
        "name": "YAOGAN-7",
        "group": "resource",
        "lat": -33.50993951829571,
        "lon": 52.3061581239392,
        "alt_km": 629.3942647894555,
        "timestamp": "2025-12-21T22:41:41.104361+00:00",
        "meta_object_name": "YAOGAN-7",
        "meta_object_id": "2009-069A",
        "meta_epoch": "2025-12-21T10:21:10.226304",
        "meta_mean_motion": 14.77744116,
        "meta_eccentricity": 0.00233741,
        "meta_inclination": 98.0296,
        "meta_ra_of_asc_node": 237.1571,
        "meta_arg_of_pericenter": 251.6264,
        "meta_mean_anomaly": 108.2405,
        "meta_ephemeris_type": 0,
        "meta_classification_type": "U",
        "meta_norad_cat_id": 36110,
        "meta_element_set_no": 999,
        "meta_rev_at_epoch": 86337,
        "meta_bstar": 7.7562861e-05,
        "meta_mean_motion_dot": 5.05e-06,
        "meta_mean_motion_ddot": 0,
        "tle_line1": "1 36110U 09069A   25355.43136836  .00000505  00000+0  77563-4 0  9990",
        "tle_line2": "2 36110  98.0296 237.1571 0023374 251.6264 108.2405 14.77744116863377"
      },
      "geometry": {
        "type": "Point",
        "coordinates": [
          52.3061581239392,
          -33.50993951829571
        ]
      }
    },
    {
      "type": "Feature",
      "properties": {
        "norad_id": 36605,
        "name": "TANDEM-X",
        "group": "resource",
        "lat": 29.243206400118805,
        "lon": -3.0067350288373227,
        "alt_km": 506.2087431322261,
        "timestamp": "2025-12-21T22:41:41.104372+00:00",
        "meta_object_name": "TANDEM-X",
        "meta_object_id": "2010-030A",
        "meta_epoch": "2025-12-21T11:29:57.943104",
        "meta_mean_motion": 15.19156092,
        "meta_eccentricity": 0.00017986,
        "meta_inclination": 97.4444,
        "meta_ra_of_asc_node": 0.7318,
        "meta_arg_of_pericenter": 77.8908,
        "meta_mean_anomaly": 282.2528,
        "meta_ephemeris_type": 0,
        "meta_classification_type": "U",
        "meta_norad_cat_id": 36605,
        "meta_element_set_no": 999,
        "meta_rev_at_epoch": 85966,
        "meta_bstar": 3.7921261e-05,
        "meta_mean_motion_dot": 7.29e-06,
        "meta_mean_motion_ddot": 0,
        "tle_line1": "1 36605U 10030A   25355.47914286  .00000729  00000+0  37921-4 0  9998",
        "tle_line2": "2 36605  97.4444   0.7318 0001798  77.8908 282.2528 15.19156092859669"
      },
      "geometry": {
        "type": "Point",
        "coordinates": [
          -3.0067350288373227,
          29.243206400118805
        ]
      }
    },
    {
      "type": "Feature",
      "properties": {
        "norad_id": 36795,
        "name": "CARTOSAT-2B",
        "group": "resource",
        "lat": 5.708430988594165,
        "lon": -134.53966387396912,
        "alt_km": 640.6643662185661,
        "timestamp": "2025-12-21T22:41:41.104382+00:00",
        "meta_object_name": "CARTOSAT-2B",
        "meta_object_id": "2010-035A",
        "meta_epoch": "2025-12-21T15:24:53.629632",
        "meta_mean_motion": 14.7873799,
        "meta_eccentricity": 0.00127934,
        "meta_inclination": 97.7843,
        "meta_ra_of_asc_node": 44.3834,
        "meta_arg_of_pericenter": 50.3399,
        "meta_mean_anomaly": 309.8939,
        "meta_ephemeris_type": 0,
        "meta_classification_type": "U",
        "meta_norad_cat_id": 36795,
        "meta_element_set_no": 999,
        "meta_rev_at_epoch": 83361,
        "meta_bstar": 0.0001457534,
        "meta_mean_motion_dot": 1.021e-05,
        "meta_mean_motion_ddot": 0,
        "tle_line1": "1 36795U 10035A   25355.64228738  .00001021  00000+0  14575-3 0  9997",
        "tle_line2": "2 36795  97.7843  44.3834 0012793  50.3399 309.8939 14.78737990833614"
      },
      "geometry": {
        "type": "Point",
        "coordinates": [
          -134.53966387396912,
          5.708430988594165
        ]
      }
    },
    {
      "type": "Feature",
      "properties": {
        "norad_id": 36834,
        "name": "YAOGAN-10",
        "group": "resource",
        "lat": 82.05173806652422,
        "lon": -69.29291298695908,
        "alt_km": 606.3261227370313,
        "timestamp": "2025-12-21T22:41:41.104392+00:00",
        "meta_object_name": "YAOGAN-10",
        "meta_object_id": "2010-038A",
        "meta_epoch": "2025-12-21T14:52:57.741600",
        "meta_mean_motion": 14.84636184,
        "meta_eccentricity": 0.00013717,
        "meta_inclination": 97.913,
        "meta_ra_of_asc_node": 15.3741,
        "meta_arg_of_pericenter": 77.135,
        "meta_mean_anomaly": 73.5272,
        "meta_ephemeris_type": 0,
        "meta_classification_type": "U",
        "meta_norad_cat_id": 36834,
        "meta_element_set_no": 999,
        "meta_rev_at_epoch": 83085,
        "meta_bstar": 0.00010764342,
        "meta_mean_motion_dot": 8.56e-06,
        "meta_mean_motion_ddot": 0,
        "tle_line1": "1 36834U 10038A   25355.62011275  .00000856  00000+0  10764-3 0  9999",
        "tle_line2": "2 36834  97.9130  15.3741 0001371  77.1350  73.5272 14.84636184830856"
      },
      "geometry": {
        "type": "Point",
        "coordinates": [
          -69.29291298695908,
          82.05173806652422
        ]
      }
    },
    {
      "type": "Feature",
      "properties": {
        "norad_id": 37216,
        "name": "COSMO-SKYMED 4",
        "group": "resource",
        "lat": -68.0184177894989,
        "lon": -162.80388042173396,
        "alt_km": 630.6676064044241,
        "timestamp": "2025-12-21T22:41:41.104403+00:00",
        "meta_object_name": "COSMO-SKYMED 4",
        "meta_object_id": "2010-060A",
        "meta_epoch": "2025-12-21T13:17:09.722400",
        "meta_mean_motion": 14.82155946,
        "meta_eccentricity": 0.00014198,
        "meta_inclination": 97.8799,
        "meta_ra_of_asc_node": 176.7437,
        "meta_arg_of_pericenter": 83.8752,
        "meta_mean_anomaly": 276.2623,
        "meta_ephemeris_type": 0,
        "meta_classification_type": "U",
        "meta_norad_cat_id": 37216,
        "meta_element_set_no": 999,
        "meta_rev_at_epoch": 81825,
        "meta_bstar": 8.9960354e-05,
        "meta_mean_motion_dot": 6.64e-06,
        "meta_mean_motion_ddot": 0,
        "tle_line1": "1 37216U 10060A   25355.55358475  .00000664  00000+0  89960-4 0  9999",
        "tle_line2": "2 37216  97.8799 176.7437 0001419  83.8752 276.2623 14.82155946818250"
      },
      "geometry": {
        "type": "Point",
        "coordinates": [
          -162.80388042173396,
          -68.0184177894989
        ]
      }
    },
    {
      "type": "Feature",
      "properties": {
        "norad_id": 37387,
        "name": "RESOURCESAT-2",
        "group": "resource",
        "lat": 51.34575740991214,
        "lon": 48.30603767028564,
        "alt_km": 811.58954290365,
        "timestamp": "2025-12-21T22:41:41.104413+00:00",
        "meta_object_name": "RESOURCESAT-2",
        "meta_object_id": "2011-015A",
        "meta_epoch": "2025-12-21T14:00:15.750432",
        "meta_mean_motion": 14.21600498,
        "meta_eccentricity": 0.00060134,
        "meta_inclination": 98.7865,
        "meta_ra_of_asc_node": 59.0952,
        "meta_arg_of_pericenter": 18.7229,
        "meta_mean_anomaly": 341.4168,
        "meta_ephemeris_type": 0,
        "meta_classification_type": "U",
        "meta_norad_cat_id": 37387,
        "meta_element_set_no": 999,
        "meta_rev_at_epoch": 76094,
        "meta_bstar": 6.7754345e-05,
        "meta_mean_motion_dot": 1.04e-06,
        "meta_mean_motion_ddot": 0,
        "tle_line1": "1 37387U 11015A   25355.58351563  .00000104  00000+0  67754-4 0  9999",
        "tle_line2": "2 37387  98.7865  59.0952 0006013  18.7229 341.4168 14.21600498760940"
      },
      "geometry": {
        "type": "Point",
        "coordinates": [
          48.30603767028564,
          51.34575740991214
        ]
      }
    }
  ]
}